[{"OBJECT_NAME":"LEGION 3","OBJECT_ID":"2024-146A","EPOCH":"2026-03-09T21:00:06.623424","MEAN_MOTION":15.16154835,"ECCENTRICITY":0.00135587,"INCLINATION":45.0003,"RA_OF_ASC_NODE":202.9187,"ARG_OF_PERICENTER":321.2712,"MEAN_ANOMALY":38.7194,"EPHEMERIS_TYPE":0,"CLASSIFICATION_TYPE":"U","NORAD_CAT_ID":60452,"ELEMENT_SET_NO":999,"REV_AT_EPOCH":8695,"BSTAR":0.00032920336,"MEAN_MOTION_DOT":6.211e-5,"MEAN_MOTION_DDOT":0},{"OBJECT_NAME":"NUSAT-47","OBJECT_ID":"2025-276CF","EPOCH":"2026-03-09T17:45:49.486176","MEAN_MOTION":15.1906801,"ECCENTRICITY":0.00020185,"INCLINATION":97.4263,"RA_OF_ASC_NODE":144.0024,"ARG_OF_PERICENTER":39.1504,"MEAN_ANOMALY":320.9877,"EPHEMERIS_TYPE":0,"CLASSIFICATION_TYPE":"U","NORAD_CAT_ID":66743,"ELEMENT_SET_NO":999,"REV_AT_EPOCH":1532,"BSTAR":0.00039116013,"MEAN_MOTION_DOT":8.137e-5,"MEAN_MOTION_DDOT":0}]
